{"type": "FeatureCollection", "features": [{"type": "Feature", "properties": {"norad_id": 26766, "name": "INTELSAT 10 (IS-10)", "group": "intelsat", "lat": -2.125759833503998, "lon": 46.8844543895702, "alt_km": 36141.12988584264, "timestamp": "2025-12-26T15:29:39.105557+00:00", "meta": {"OBJECT_NAME": "INTELSAT 10 (IS-10)", "OBJECT_ID": "2001-019A", "EPOCH": "2025-12-26T03:37:38.694720", "MEAN_MOTION": 0.9907193, "ECCENTRICITY": 0.00080244, "INCLINATION": 8.6594, "RA_OF_ASC_NODE": 61.0206, "ARG_OF_PERICENTER": 229.8344, "MEAN_ANOMALY": 299.4437, "EPHEMERIS_TYPE": 0, "CLASSIFICATION_TYPE": "U", "NORAD_CAT_ID": 26766, "ELEMENT_SET_NO": 999, "REV_AT_EPOCH": 4386, "BSTAR": 0, "MEAN_MOTION_DOT": 4.6e-07, "MEAN_MOTION_DDOT": 0}, "tle": {"line1": "1 26766U 01019A   25360.15114230  .00000046  00000+0  00000+0 0  9999", "line2": "2 26766   8.6594  61.0206 0008024 229.8344 299.4437  0.99071930 43869"}}, "geometry": {"type": "Point", "coordinates": [46.8844543895702, -2.125759833503998]}}, {"type": "Feature", "properties": {"norad_id": 26900, "name": "INTELSAT 902 (IS-902)", "group": "intelsat", "lat": -2.296315114983914, "lon": -82.51685201616144, "alt_km": 35769.330581321716, "timestamp": "2025-12-26T15:29:39.105582+00:00", "meta": {"OBJECT_NAME": "INTELSAT 902 (IS-902)", "OBJECT_ID": "2001-039A", "EPOCH": "2025-12-15T13:09:02.081664", "MEAN_MOTION": 1.0027087, "ECCENTRICITY": 0.00045028, "INCLINATION": 5.6536, "RA_OF_ASC_NODE": 74.0372, "ARG_OF_PERICENTER": 189.6359, "MEAN_ANOMALY": 327.9329, "EPHEMERIS_TYPE": 0, "CLASSIFICATION_TYPE": "U", "NORAD_CAT_ID": 26900, "ELEMENT_SET_NO": 999, "REV_AT_EPOCH": 8885, "BSTAR": 0, "MEAN_MOTION_DOT": -2.65e-06, "MEAN_MOTION_DDOT": 0}, "tle": {"line1": "1 26900U 01039A   25349.54794076 -.00000265  00000+0  00000+0 0  9997", "line2": "2 26900   5.6536  74.0372 0004502 189.6359 327.9329  1.00270870 88858"}}, "geometry": {"type": "Point", "coordinates": [-82.51685201616144, -2.296315114983914]}}, {"type": "Feature", "properties": {"norad_id": 27380, "name": "INTELSAT 904 (IS-904)", "group": "intelsat", "lat": -4.602959411632816, "lon": -63.87442947921195, "alt_km": 35778.4735269372, "timestamp": "2025-12-26T15:29:39.105600+00:00", "meta": {"OBJECT_NAME": "INTELSAT 904 (IS-904)", "OBJECT_ID": "2002-007A", "EPOCH": "2025-12-26T00:54:05.260032", "MEAN_MOTION": 1.00272555, "ECCENTRICITY": 0.0002087, "INCLINATION": 6.4858, "RA_OF_ASC_NODE": 71.2782, "ARG_OF_PERICENTER": 249.0692, "MEAN_ANOMALY": 116.4823, "EPHEMERIS_TYPE": 0, "CLASSIFICATION_TYPE": "U", "NORAD_CAT_ID": 27380, "ELEMENT_SET_NO": 999, "REV_AT_EPOCH": 5003, "BSTAR": 0, "MEAN_MOTION_DOT": -2.06e-06, "MEAN_MOTION_DDOT": 0}, "tle": {"line1": "1 27380U 02007A   25360.03756088 -.00000206  00000+0  00000+0 0  9999", "line2": "2 27380   6.4858  71.2782 0002087 249.0692 116.4823  1.00272555 50039"}}, "geometry": {"type": "Point", "coordinates": [-63.87442947921195, -4.602959411632816]}}, {"type": "Feature", "properties": {"norad_id": 27426, "name": "DIRECTV 5 (TEMPO 1)", "group": "intelsat", "lat": 2.8349469138391634, "lon": -142.2720321155674, "alt_km": 35779.835396319875, "timestamp": "2025-12-26T15:29:39.105613+00:00", "meta": {"OBJECT_NAME": "DIRECTV 5 (TEMPO 1)", "OBJECT_ID": "2002-023A", "EPOCH": "2025-12-26T05:55:17.661216", "MEAN_MOTION": 1.00271474, "ECCENTRICITY": 0.00034125, "INCLINATION": 4.4346, "RA_OF_ASC_NODE": 77.4934, "ARG_OF_PERICENTER": 205.8268, "MEAN_ANOMALY": 150.3792, "EPHEMERIS_TYPE": 0, "CLASSIFICATION_TYPE": "U", "NORAD_CAT_ID": 27426, "ELEMENT_SET_NO": 999, "REV_AT_EPOCH": 8638, "BSTAR": 0, "MEAN_MOTION_DOT": -3.7e-07, "MEAN_MOTION_DDOT": 0}, "tle": {"line1": "1 27426U 02023A   25360.24673219 -.00000037  00000+0  00000+0 0  9997", "line2": "2 27426   4.4346  77.4934 0003412 205.8268 150.3792  1.00271474 86387"}}, "geometry": {"type": "Point", "coordinates": [-142.2720321155674, 2.8349469138391634]}}, {"type": "Feature", "properties": {"norad_id": 27438, "name": "INTELSAT 905 (IS-905)", "group": "intelsat", "lat": 5.544259546864687, "lon": -169.25574742481413, "alt_km": 35784.17567959778, "timestamp": "2025-12-26T15:29:39.105626+00:00", "meta": {"OBJECT_NAME": "INTELSAT 905 (IS-905)", "OBJECT_ID": "2002-027A", "EPOCH": "2025-12-23T05:41:27.377952", "MEAN_MOTION": 1.00273243, "ECCENTRICITY": 0.00027491, "INCLINATION": 6.3102, "RA_OF_ASC_NODE": 71.9349, "ARG_OF_PERICENTER": 206.5226, "MEAN_ANOMALY": 121.7385, "EPHEMERIS_TYPE": 0, "CLASSIFICATION_TYPE": "U", "NORAD_CAT_ID": 27438, "ELEMENT_SET_NO": 999, "REV_AT_EPOCH": 4959, "BSTAR": 0, "MEAN_MOTION_DOT": 1.12e-06, "MEAN_MOTION_DDOT": 0}, "tle": {"line1": "1 27438U 02027A   25357.23712243  .00000112  00000+0  00000+0 0  9993", "line2": "2 27438   6.3102  71.9349 0002749 206.5226 121.7385  1.00273243 49592"}}, "geometry": {"type": "Point", "coordinates": [-169.25574742481413, 5.544259546864687]}}, {"type": "Feature", "properties": {"norad_id": 27445, "name": "GALAXY 3C (G-3C)", "group": "intelsat", "lat": 1.5058752443484031, "lon": -127.00884261114044, "alt_km": 35784.369379846365, "timestamp": "2025-12-26T15:29:39.105639+00:00", "meta": {"OBJECT_NAME": "GALAXY 3C (G-3C)", "OBJECT_ID": "2002-030A", "EPOCH": "2025-12-26T00:40:14.516256", "MEAN_MOTION": 1.00271406, "ECCENTRICITY": 9.952e-05, "INCLINATION": 3.2949, "RA_OF_ASC_NODE": 80.3648, "ARG_OF_PERICENTER": 85.9559, "MEAN_ANOMALY": 203.6643, "EPHEMERIS_TYPE": 0, "CLASSIFICATION_TYPE": "U", "NORAD_CAT_ID": 27445, "ELEMENT_SET_NO": 999, "REV_AT_EPOCH": 4475, "BSTAR": 0, "MEAN_MOTION_DOT": -1.32e-06, "MEAN_MOTION_DDOT": 0}, "tle": {"line1": "1 27445U 02030A   25360.02794579 -.00000132  00000+0  00000+0 0  9991", "line2": "2 27445   3.2949  80.3648 0000995  85.9559 203.6643  1.00271406 44759"}}, "geometry": {"type": "Point", "coordinates": [-127.00884261114044, 1.5058752443484031]}}, {"type": "Feature", "properties": {"norad_id": 27513, "name": "INTELSAT 906 (IS-906)", "group": "intelsat", "lat": -3.658777683505382, "lon": 32.114592119148085, "alt_km": 35797.720211069936, "timestamp": "2025-12-26T15:29:39.105662+00:00", "meta": {"OBJECT_NAME": "INTELSAT 906 (IS-906)", "OBJECT_ID": "2002-041A", "EPOCH": "2025-12-25T18:30:25.911072", "MEAN_MOTION": 1.00270895, "ECCENTRICITY": 0.00061771, "INCLINATION": 5.3631, "RA_OF_ASC_NODE": 75.0767, "ARG_OF_PERICENTER": 202.1174, "MEAN_ANOMALY": 159.0704, "EPHEMERIS_TYPE": 0, "CLASSIFICATION_TYPE": "U", "NORAD_CAT_ID": 27513, "ELEMENT_SET_NO": 999, "REV_AT_EPOCH": 8529, "BSTAR": 0, "MEAN_MOTION_DOT": 3.3e-07, "MEAN_MOTION_DDOT": 0}, "tle": {"line1": "1 27513U 02041A   25359.77113323  .00000033  00000+0  00000+0 0  9990", "line2": "2 27513   5.3631  75.0767 0006177 202.1174 159.0704  1.00270895 85290"}}, "geometry": {"type": "Point", "coordinates": [32.114592119148085, -3.658777683505382]}}, {"type": "Feature", "properties": {"norad_id": 27954, "name": "GALAXY 13 (HORIZONS-1)", "group": "intelsat", "lat": 0.9769827835404469, "lon": 177.74155603164576, "alt_km": 35786.694831371184, "timestamp": "2025-12-26T15:29:39.105690+00:00", "meta": {"OBJECT_NAME": "GALAXY 13 (HORIZONS-1)", "OBJECT_ID": "2003-044A", "EPOCH": "2025-12-26T06:07:29.116704", "MEAN_MOTION": 1.00272392, "ECCENTRICITY": 0.00023019, "INCLINATION": 0.9718, "RA_OF_ASC_NODE": 86.2951, "ARG_OF_PERICENTER": 187.0647, "MEAN_ANOMALY": 123.4865, "EPHEMERIS_TYPE": 0, "CLASSIFICATION_TYPE": "U", "NORAD_CAT_ID": 27954, "ELEMENT_SET_NO": 999, "REV_AT_EPOCH": 4483, "BSTAR": 0, "MEAN_MOTION_DOT": 1.54e-06, "MEAN_MOTION_DDOT": 0}, "tle": {"line1": "1 27954U 03044A   25360.25519811  .00000154  00000+0  00000+0 0  9994", "line2": "2 27954   0.9718  86.2951 0002301 187.0647 123.4865  1.00272392 44838"}}, "geometry": {"type": "Point", "coordinates": [177.74155603164576, 0.9769827835404469]}}, {"type": "Feature", "properties": {"norad_id": 28358, "name": "INTELSAT 10-02", "group": "intelsat", "lat": -0.03119882665832306, "lon": -33.15560933368734, "alt_km": 35781.78193147424, "timestamp": "2025-12-26T15:29:39.105706+00:00", "meta": {"OBJECT_NAME": "INTELSAT 10-02", "OBJECT_ID": "2004-022A", "EPOCH": "2025-12-26T04:28:15.278016", "MEAN_MOTION": 1.0027051, "ECCENTRICITY": 0.00012261, "INCLINATION": 0.0179, "RA_OF_ASC_NODE": 39.4265, "ARG_OF_PERICENTER": 261.2502, "MEAN_ANOMALY": 220.3686, "EPHEMERIS_TYPE": 0, "CLASSIFICATION_TYPE": "U", "NORAD_CAT_ID": 28358, "ELEMENT_SET_NO": 999, "REV_AT_EPOCH": 7882, "BSTAR": 0, "MEAN_MOTION_DOT": 1.1e-07, "MEAN_MOTION_DDOT": 0}, "tle": {"line1": "1 28358U 04022A   25360.18628794  .00000011  00000+0  00000+0 0  9995", "line2": "2 28358   0.0179  39.4265 0001226 261.2502 220.3686  1.00270510 78821"}}, "geometry": {"type": "Point", "coordinates": [-33.15560933368734, -0.03119882665832306]}}, {"type": "Feature", "properties": {"norad_id": 28626, "name": "XM-3 (RHYTHM)", "group": "intelsat", "lat": -0.18852277651039342, "lon": 15.982971243204931, "alt_km": 36151.79339794628, "timestamp": "2025-12-26T15:29:39.105719+00:00", "meta": {"OBJECT_NAME": "XM-3 (RHYTHM)", "OBJECT_ID": "2005-008A", "EPOCH": "2025-12-26T04:42:51.380064", "MEAN_MOTION": 0.98950411, "ECCENTRICITY": 0.00022371, "INCLINATION": 0.2074, "RA_OF_ASC_NODE": 82.2895, "ARG_OF_PERICENTER": 272.1799, "MEAN_ANOMALY": 221.5062, "EPHEMERIS_TYPE": 0, "CLASSIFICATION_TYPE": "U", "NORAD_CAT_ID": 28626, "ELEMENT_SET_NO": 999, "REV_AT_EPOCH": 4088, "BSTAR": 0, "MEAN_MOTION_DOT": 8.6e-07, "MEAN_MOTION_DDOT": 0}, "tle": {"line1": "1 28626U 05008A   25360.19642801  .00000086  00000+0  00000+0 0  9996", "line2": "2 28626   0.2074  82.2895 0002237 272.1799 221.5062  0.98950411 40889"}}, "geometry": {"type": "Point", "coordinates": [15.982971243204931, -0.18852277651039342]}}]}